[{"OBJECT_NAME":"OBJECT H","OBJECT_ID":"2024-205H","EPOCH":"2026-03-09T23:10:36.271776","MEAN_MOTION":15.29110994,"ECCENTRICITY":0.00105089,"INCLINATION":97.4168,"RA_OF_ASC_NODE":147.1265,"ARG_OF_PERICENTER":38.7838,"MEAN_ANOMALY":321.4154,"EPHEMERIS_TYPE":0,"CLASSIFICATION_TYPE":"U","NORAD_CAT_ID":61901,"ELEMENT_SET_NO":999,"REV_AT_EPOCH":7354,"BSTAR":0.00059497566,"MEAN_MOTION_DOT":0.00016783,"MEAN_MOTION_DDOT":0},{"OBJECT_NAME":"STARLINK-35850","OBJECT_ID":"2025-254E","EPOCH":"2026-03-09T17:09:26.126208","MEAN_MOTION":15.30213775,"ECCENTRICITY":0.00026777,"INCLINATION":53.1597,"RA_OF_ASC_NODE":232.0429,"ARG_OF_PERICENTER":163.9442,"MEAN_ANOMALY":196.1644,"EPHEMERIS_TYPE":0,"CLASSIFICATION_TYPE":"U","NORAD_CAT_ID":66352,"ELEMENT_SET_NO":999,"REV_AT_EPOCH":1898,"BSTAR":0.00096348694,"MEAN_MOTION_DOT":0.00028299,"MEAN_MOTION_DDOT":0}]
